<?xml version="1.0" encoding="UTF-8"?>
<ndm xmlns:xsi="http://www.w3.org/2001/XMLSchema-instance" xsi:noNamespaceSchemaLocation="https://sanaregistry.org/r/ndmxml_unqualified/ndmxml-2.0.0-master-2.0.xsd">
<omm id="CCSDS_OMM_VERS" version="2.0">
<header><CREATION_DATE/><ORIGINATOR/></header><body><segment><metadata><OBJECT_NAME>ORBCOMM FM24</OBJECT_NAME><OBJECT_ID>1998-053D</OBJECT_ID><CENTER_NAME>EARTH</CENTER_NAME><REF_FRAME>TEME</REF_FRAME><TIME_SYSTEM>UTC</TIME_SYSTEM><MEAN_ELEMENT_THEORY>SGP4</MEAN_ELEMENT_THEORY></metadata><data><meanElements><EPOCH>2024-05-26T20:02:48.565248</EPOCH><MEAN_MOTION>14.35770316</MEAN_MOTION><ECCENTRICITY>.0001246</ECCENTRICITY><INCLINATION>45.0088</INCLINATION><RA_OF_ASC_NODE>297.7008</RA_OF_ASC_NODE><ARG_OF_PERICENTER>152.8186</ARG_OF_PERICENTER><MEAN_ANOMALY>207.2727</MEAN_ANOMALY></meanElements><tleParameters><EPHEMERIS_TYPE>0</EPHEMERIS_TYPE><CLASSIFICATION_TYPE>U</CLASSIFICATION_TYPE><NORAD_CAT_ID>25478</NORAD_CAT_ID><ELEMENT_SET_NO>999</ELEMENT_SET_NO><REV_AT_EPOCH>34187</REV_AT_EPOCH><BSTAR>.64216E-3</BSTAR><MEAN_MOTION_DOT>.1733E-4</MEAN_MOTION_DOT><MEAN_MOTION_DDOT>0</MEAN_MOTION_DDOT></tleParameters></data></segment></body></omm>
<omm id="CCSDS_OMM_VERS" version="2.0">
<header><CREATION_DATE/><ORIGINATOR/></header><body><segment><metadata><OBJECT_NAME>ORBCOMM FM25</OBJECT_NAME><OBJECT_ID>1998-053E</OBJECT_ID><CENTER_NAME>EARTH</CENTER_NAME><REF_FRAME>TEME</REF_FRAME><TIME_SYSTEM>UTC</TIME_SYSTEM><MEAN_ELEMENT_THEORY>SGP4</MEAN_ELEMENT_THEORY></metadata><data><meanElements><EPOCH>2024-05-27T11:56:36.863232</EPOCH><MEAN_MOTION>14.35751315</MEAN_MOTION><ECCENTRICITY>.0003758</ECCENTRICITY><INCLINATION>45.0075</INCLINATION><RA_OF_ASC_NODE>292.8169</RA_OF_ASC_NODE><ARG_OF_PERICENTER>135.7386</ARG_OF_PERICENTER><MEAN_ANOMALY>224.3763</MEAN_ANOMALY></meanElements><tleParameters><EPHEMERIS_TYPE>0</EPHEMERIS_TYPE><CLASSIFICATION_TYPE>U</CLASSIFICATION_TYPE><NORAD_CAT_ID>25479</NORAD_CAT_ID><ELEMENT_SET_NO>999</ELEMENT_SET_NO><REV_AT_EPOCH>34226</REV_AT_EPOCH><BSTAR>.56985E-3</BSTAR><MEAN_MOTION_DOT>.1521E-4</MEAN_MOTION_DOT><MEAN_MOTION_DDOT>0</MEAN_MOTION_DDOT></tleParameters></data></segment></body></omm>
<omm id="CCSDS_OMM_VERS" version="2.0">
<header><CREATION_DATE/><ORIGINATOR/></header><body><segment><metadata><OBJECT_NAME>ORBCOMM FM26</OBJECT_NAME><OBJECT_ID>1998-053F</OBJECT_ID><CENTER_NAME>EARTH</CENTER_NAME><REF_FRAME>TEME</REF_FRAME><TIME_SYSTEM>UTC</TIME_SYSTEM><MEAN_ELEMENT_THEORY>SGP4</MEAN_ELEMENT_THEORY></metadata><data><meanElements><EPOCH>2024-05-26T12:52:12.834624</EPOCH><MEAN_MOTION>14.35179206</MEAN_MOTION><ECCENTRICITY>.0006095</ECCENTRICITY><INCLINATION>45.0069</INCLINATION><RA_OF_ASC_NODE>291.5449</RA_OF_ASC_NODE><ARG_OF_PERICENTER>142.9331</ARG_OF_PERICENTER><MEAN_ANOMALY>217.1938</MEAN_ANOMALY></meanElements><tleParameters><EPHEMERIS_TYPE>0</EPHEMERIS_TYPE><CLASSIFICATION_TYPE>U</CLASSIFICATION_TYPE><NORAD_CAT_ID>25480</NORAD_CAT_ID><ELEMENT_SET_NO>999</ELEMENT_SET_NO><REV_AT_EPOCH>34216</REV_AT_EPOCH><BSTAR>.58152E-3</BSTAR><MEAN_MOTION_DOT>.1536E-4</MEAN_MOTION_DOT><MEAN_MOTION_DDOT>0</MEAN_MOTION_DDOT></tleParameters></data></segment></body></omm>
<omm id="CCSDS_OMM_VERS" version="2.0">
<header><CREATION_DATE/><ORIGINATOR/></header><body><segment><metadata><OBJECT_NAME>ORBCOMM FM27</OBJECT_NAME><OBJECT_ID>1998-053G</OBJECT_ID><CENTER_NAME>EARTH</CENTER_NAME><REF_FRAME>TEME</REF_FRAME><TIME_SYSTEM>UTC</TIME_SYSTEM><MEAN_ELEMENT_THEORY>SGP4</MEAN_ELEMENT_THEORY></metadata><data><meanElements><EPOCH>2024-05-26T17:17:32.592768</EPOCH><MEAN_MOTION>14.35735013</MEAN_MOTION><ECCENTRICITY>.0001561</ECCENTRICITY><INCLINATION>45.0062</INCLINATION><RA_OF_ASC_NODE>296.7518</RA_OF_ASC_NODE><ARG_OF_PERICENTER>217.6979</ARG_OF_PERICENTER><MEAN_ANOMALY>142.3759</MEAN_ANOMALY></meanElements><tleParameters><EPHEMERIS_TYPE>0</EPHEMERIS_TYPE><CLASSIFICATION_TYPE>U</CLASSIFICATION_TYPE><NORAD_CAT_ID>25481</NORAD_CAT_ID><ELEMENT_SET_NO>999</ELEMENT_SET_NO><REV_AT_EPOCH>34208</REV_AT_EPOCH><BSTAR>.65186E-3</BSTAR><MEAN_MOTION_DOT>.176E-4</MEAN_MOTION_DOT><MEAN_MOTION_DDOT>0</MEAN_MOTION_DDOT></tleParameters></data></segment></body></omm>
<omm id="CCSDS_OMM_VERS" version="2.0">
<header><CREATION_DATE/><ORIGINATOR/></header><body><segment><metadata><OBJECT_NAME>ORBCOMM FM28</OBJECT_NAME><OBJECT_ID>1998-053H</OBJECT_ID><CENTER_NAME>EARTH</CENTER_NAME><REF_FRAME>TEME</REF_FRAME><TIME_SYSTEM>UTC</TIME_SYSTEM><MEAN_ELEMENT_THEORY>SGP4</MEAN_ELEMENT_THEORY></metadata><data><meanElements><EPOCH>2024-05-26T08:30:09.849888</EPOCH><MEAN_MOTION>14.36166613</MEAN_MOTION><ECCENTRICITY>.0004507</ECCENTRICITY><INCLINATION>45.0051</INCLINATION><RA_OF_ASC_NODE>236.8960</RA_OF_ASC_NODE><ARG_OF_PERICENTER>186.8228</ARG_OF_PERICENTER><MEAN_ANOMALY>173.2559</MEAN_ANOMALY></meanElements><tleParameters><EPHEMERIS_TYPE>0</EPHEMERIS_TYPE><CLASSIFICATION_TYPE>U</CLASSIFICATION_TYPE><NORAD_CAT_ID>25482</NORAD_CAT_ID><ELEMENT_SET_NO>999</ELEMENT_SET_NO><REV_AT_EPOCH>34287</REV_AT_EPOCH><BSTAR>.62102E-3</BSTAR><MEAN_MOTION_DOT>.1686E-4</MEAN_MOTION_DOT><MEAN_MOTION_DDOT>0</MEAN_MOTION_DDOT></tleParameters></data></segment></body></omm>
<omm id="CCSDS_OMM_VERS" version="2.0">
<header><CREATION_DATE/><ORIGINATOR/></header><body><segment><metadata><OBJECT_NAME>ORBCOMM FM30</OBJECT_NAME><OBJECT_ID>1999-065A</OBJECT_ID><CENTER_NAME>EARTH</CENTER_NAME><REF_FRAME>TEME</REF_FRAME><TIME_SYSTEM>UTC</TIME_SYSTEM><MEAN_ELEMENT_THEORY>SGP4</MEAN_ELEMENT_THEORY></metadata><data><meanElements><EPOCH>2024-05-26T21:56:31.079904</EPOCH><MEAN_MOTION>14.35311292</MEAN_MOTION><ECCENTRICITY>.0006789</ECCENTRICITY><INCLINATION>45.0305</INCLINATION><RA_OF_ASC_NODE>115.3033</RA_OF_ASC_NODE><ARG_OF_PERICENTER>248.8108</ARG_OF_PERICENTER><MEAN_ANOMALY>111.2014</MEAN_ANOMALY></meanElements><tleParameters><EPHEMERIS_TYPE>0</EPHEMERIS_TYPE><CLASSIFICATION_TYPE>U</CLASSIFICATION_TYPE><NORAD_CAT_ID>25980</NORAD_CAT_ID><ELEMENT_SET_NO>999</ELEMENT_SET_NO><REV_AT_EPOCH>27944</REV_AT_EPOCH><BSTAR>.52199E-3</BSTAR><MEAN_MOTION_DOT>.1369E-4</MEAN_MOTION_DOT><MEAN_MOTION_DDOT>0</MEAN_MOTION_DDOT></tleParameters></data></segment></body></omm>
<omm id="CCSDS_OMM_VERS" version="2.0">
<header><CREATION_DATE/><ORIGINATOR/></header><body><segment><metadata><OBJECT_NAME>ORBCOMM FM31</OBJECT_NAME><OBJECT_ID>1999-065B</OBJECT_ID><CENTER_NAME>EARTH</CENTER_NAME><REF_FRAME>TEME</REF_FRAME><TIME_SYSTEM>UTC</TIME_SYSTEM><MEAN_ELEMENT_THEORY>SGP4</MEAN_ELEMENT_THEORY></metadata><data><meanElements><EPOCH>2024-05-26T22:47:09.803328</EPOCH><MEAN_MOTION>14.35307901</MEAN_MOTION><ECCENTRICITY>.0004517</ECCENTRICITY><INCLINATION>45.0224</INCLINATION><RA_OF_ASC_NODE>108.8175</RA_OF_ASC_NODE><ARG_OF_PERICENTER>277.0412</ARG_OF_PERICENTER><MEAN_ANOMALY>82.9922</MEAN_ANOMALY></meanElements><tleParameters><EPHEMERIS_TYPE>0</EPHEMERIS_TYPE><CLASSIFICATION_TYPE>U</CLASSIFICATION_TYPE><NORAD_CAT_ID>25981</NORAD_CAT_ID><ELEMENT_SET_NO>999</ELEMENT_SET_NO><REV_AT_EPOCH>27944</REV_AT_EPOCH><BSTAR>.55978E-3</BSTAR><MEAN_MOTION_DOT>.1478E-4</MEAN_MOTION_DOT><MEAN_MOTION_DDOT>0</MEAN_MOTION_DDOT></tleParameters></data></segment></body></omm>
<omm id="CCSDS_OMM_VERS" version="2.0">
<header><CREATION_DATE/><ORIGINATOR/></header><body><segment><metadata><OBJECT_NAME>ORBCOMM FM32</OBJECT_NAME><OBJECT_ID>1999-065C</OBJECT_ID><CENTER_NAME>EARTH</CENTER_NAME><REF_FRAME>TEME</REF_FRAME><TIME_SYSTEM>UTC</TIME_SYSTEM><MEAN_ELEMENT_THEORY>SGP4</MEAN_ELEMENT_THEORY></metadata><data><meanElements><EPOCH>2024-05-26T15:55:55.867584</EPOCH><MEAN_MOTION>14.34307017</MEAN_MOTION><ECCENTRICITY>.0006983</ECCENTRICITY><INCLINATION>45.0150</INCLINATION><RA_OF_ASC_NODE>124.0867</RA_OF_ASC_NODE><ARG_OF_PERICENTER>270.5459</ARG_OF_PERICENTER><MEAN_ANOMALY>89.4588</MEAN_ANOMALY></meanElements><tleParameters><EPHEMERIS_TYPE>0</EPHEMERIS_TYPE><CLASSIFICATION_TYPE>U</CLASSIFICATION_TYPE><NORAD_CAT_ID>25982</NORAD_CAT_ID><ELEMENT_SET_NO>999</ELEMENT_SET_NO><REV_AT_EPOCH>27906</REV_AT_EPOCH><BSTAR>.54034E-3</BSTAR><MEAN_MOTION_DOT>.1391E-4</MEAN_MOTION_DOT><MEAN_MOTION_DDOT>0</MEAN_MOTION_DDOT></tleParameters></data></segment></body></omm>

</ndm>
