ORBCOMM FM24            
1 25478U 98053D   24147.83528432  .00001733  00000+0  64216-3 0  9999
2 25478  45.0088 297.7008 0001246 152.8186 207.2727 14.35770316341877
ORBCOMM FM25            
1 25479U 98053E   24148.49764888  .00001521  00000+0  56985-3 0  9999
2 25479  45.0075 292.8169 0003758 135.7386 224.3763 14.35751315342262
ORBCOMM FM26            
1 25480U 98053F   24147.53625966  .00001536  00000+0  58152-3 0  9992
2 25480  45.0069 291.5449 0006095 142.9331 217.1938 14.35179206342167
ORBCOMM FM27            
1 25481U 98053G   24147.72051612  .00001760  00000+0  65186-3 0  9999
2 25481  45.0062 296.7518 0001561 217.6979 142.3759 14.35735013342081
ORBCOMM FM28            
1 25482U 98053H   24147.35428067  .00001686  00000+0  62102-3 0  9993
2 25482  45.0051 236.8960 0004507 186.8228 173.2559 14.36166613342876
ORBCOMM FM30            
1 25980U 99065A   24147.91424861  .00001369  00000+0  52199-3 0  9993
2 25980  45.0305 115.3033 0006789 248.8108 111.2014 14.35311292279447
ORBCOMM FM31            
1 25981U 99065B   24147.94941902  .00001478  00000+0  55978-3 0  9996
2 25981  45.0224 108.8175 0004517 277.0412  82.9922 14.35307901279445
ORBCOMM FM32            
1 25982U 99065C   24147.66384106  .00001391  00000+0  54034-3 0  9999
2 25982  45.0150 124.0867 0006983 270.5459  89.4588 14.34307017279065
